OBJECT_NAME,OBJECT_ID,EPOCH,MEAN_MOTION,ECCENTRICITY,INCLINATION,RA_OF_ASC_NODE,ARG_OF_PERICENTER,MEAN_ANOMALY,EPHEMERIS_TYPE,CLASSIFICATION_TYPE,NORAD_CAT_ID,ELEMENT_SET_NO,REV_AT_EPOCH,BSTAR,MEAN_MOTION_DOT,MEAN_MOTION_DDOT
ONEWEB-0543,2023-004D,2026-06-20T10:14:15.067392,13.18685541,.0001637,87.9160,334.8247,95.0837,265.0482,0,U,55143,999,17012,.11249E-3,.57E-6,0
ONEWEB-0544,2023-004E,2026-06-20T10:04:32.424672,13.18685759,.0001788,87.9162,334.8257,100.0732,260.0602,0,U,55144,999,17012,.64789E-4,.38E-6,0
ONEWEB-0560,2023-004F,2026-06-20T09:54:49.317120,13.18686867,.0001686,87.9164,334.8164,101.6104,258.5217,0,U,55145,999,17013,.14371E-3,.7E-6,0
ONEWEB-0565,2023-004G,2026-06-20T09:45:07.223040,13.18685698,.0002134,87.9154,334.8453,103.2410,256.8960,0,U,55146,999,17012,.18666E-3,.87E-6,0
ONEWEB-0567,2023-004H,2026-06-20T09:35:24.607104,13.18686320,.0001967,87.9165,334.8309,104.0571,256.0779,0,U,55147,999,17012,.18118E-3,.84E-6,0
ONEWEB-0569,2023-004J,2026-06-20T10:27:59.995584,13.13470546,.0001927,87.8963,319.5732,124.1039,236.0273,0,U,55148,999,17060,.38921E-3,.155E-5,0
ONEWEB-0570,2023-004K,2026-06-20T09:23:15.413568,13.18685505,.000225,87.9164,334.8306,93.3163,266.8227,0,U,55149,999,17011,.13634E-3,.67E-6,0
ONEWEB-0571,2023-004L,2026-06-20T11:02:48.022656,13.18688732,.0002448,87.9163,334.8160,123.7820,236.3546,0,U,55150,999,17013,.45693E-4,.31E-6,0
ONEWEB-0572,2023-004M,2026-06-20T11:32:25.169568,13.17648705,.0001987,87.9132,5.2100,94.0022,266.1336,0,U,55151,999,16791,.45857E-4,.31E-6,0
ONEWEB-0573,2023-004N,2026-06-20T10:53:05.680608,13.18686575,.0002334,87.9165,334.8189,113.7828,246.3549,0,U,55152,999,17012,-.14249E-4,.7E-7,0
ONEWEB-0588,2023-004P,2026-06-20T10:43:23.183040,13.18685632,.0002365,87.9161,334.8204,94.4912,265.6490,0,U,55153,999,17012,.7605E-4,.43E-6,0
ONEWEB-0598,2023-004Q,2026-06-20T06:55:19.407648,13.11414632,.0001796,87.8880,20.4511,109.9391,250.1931,0,U,55154,999,16630,-.66157E-3,-.222E-5,0
ONEWEB-0599,2023-004R,2026-06-20T10:36:31.991616,13.17648990,.0001675,87.9130,5.2163,92.0376,268.0947,0,U,55155,999,16791,.42198E-4,.29E-6,0
ONEWEB-0614,2023-004S,2026-06-20T06:47:59.978976,13.11414470,.0001992,87.8881,20.4610,81.9265,278.2089,0,U,55156,999,16624,.4607E-4,.29E-6,0
ONEWEB-0616,2023-004T,2026-06-19T22:51:51.049152,13.17649303,.00009404,87.9133,5.3173,85.3550,274.7689,0,U,55157,999,16806,.69661265E-4,.4E-6,0
ONEWEB-0617,2023-004U,2026-06-20T06:30:55.922112,13.11414893,.0002235,87.8888,20.4546,84.5653,275.5729,0,U,55158,999,16626,.11716E-2,.428E-5,0
ONEWEB-0618,2023-004V,2026-06-20T10:21:15.952032,15.13155354,.0009439,86.9094,176.3176,284.5059,75.5133,0,U,55159,999,18275,.19148E-3,.3429E-4,0
ONEWEB-0619,2023-004W,2026-06-20T06:55:24.901824,13.17648520,.0001855,87.9142,5.2314,77.0842,283.0497,0,U,55160,999,16800,.86222E-5,.16E-6,0
ONEWEB-0620,2023-004X,2026-06-20T08:13:27.585696,13.11414829,.0001946,87.8882,20.4489,94.0701,266.0649,0,U,55161,999,16624,.142E-2,.516E-5,0
ONEWEB-0621,2023-004Y,2026-06-20T07:02:38.519232,13.11414623,.0001992,87.8894,20.4479,81.4327,278.7027,0,U,55162,999,16621,-.12668E-2,-.436E-5,0
ONEWEB-0622,2023-004Z,2026-06-20T07:09:58.139712,13.11415404,.0002568,87.8899,20.4488,86.4032,273.7390,0,U,55163,999,16620,-.14663E-2,-.507E-5,0
ONEWEB-0623,2023-004AA,2026-06-20T10:26:48.320736,13.17649545,.0002461,87.9129,5.2323,75.4612,284.6792,0,U,55164,999,16801,.53659E-4,.34E-6,0
ONEWEB-0624,2023-004AB,2026-06-20T09:29:46.199040,13.12928823,.0001875,87.8943,349.9462,87.8678,272.2665,0,U,55165,999,16849,.50692E-3,.196E-5,0
ONEWEB-0625,2023-004AC,2026-06-20T06:33:32.720832,13.17648849,.0001714,87.9131,5.2603,87.0102,273.1225,0,U,55166,999,16798,-.18634E-3,-.59E-6,0
ONEWEB-0626,2023-004AD,2026-06-19T23:01:35.555520,13.17650240,.00019821,87.9132,5.3230,100.1826,259.9530,0,U,55167,999,16794,.21089711E-2,.832E-5,0
ONEWEB-0627,2023-004AE,2026-06-19T22:44:33.253440,13.17648672,.00022419,87.9134,5.3251,79.1586,280.9797,0,U,55168,999,16794,-.36092488E-4,-.1E-7,0
ONEWEB-0628,2023-004AF,2026-06-20T10:54:29.085984,13.12443016,.0002222,87.8944,350.0031,76.4953,283.6423,0,U,55169,999,16846,-.14143E-2,-.496E-5,0
ONEWEB-0629,2023-004AG,2026-06-20T10:54:45.030240,13.17647769,.0001821,87.9129,5.2202,78.8794,281.2542,0,U,55170,999,16801,.66986E-4,.39E-6,0
ONEWEB-0631,2023-004AH,2026-06-20T10:33:40.449600,13.18685069,.0002264,87.9172,334.7882,101.0301,259.1085,0,U,55171,999,17010,-.22292E-4,.4E-7,0
ONEWEB-0709,2023-004AJ,2026-06-20T07:58:49.296000,13.11417579,.0001931,87.8884,20.4530,113.7365,246.3966,0,U,55172,999,16628,.10845E-2,.397E-5,0
ONEWEB-0710,2023-004AK,2026-06-20T11:15:24.408864,13.17649949,.0002016,87.9131,5.2125,86.9507,273.1855,0,U,55173,999,16801,-.10549E-3,-.28E-6,0
