ONEWEB-0543             
1 55143U 23004D   26171.42656328  .00000057  00000+0  11249-3 0  9991
2 55143  87.9160 334.8247 0001637  95.0837 265.0482 13.18685541170121
ONEWEB-0544             
1 55144U 23004E   26171.41981973  .00000038  00000+0  64789-4 0  9995
2 55144  87.9162 334.8257 0001788 100.0732 260.0602 13.18685759170123
ONEWEB-0560             
1 55145U 23004F   26171.41307080  .00000070  00000+0  14371-3 0  9994
2 55145  87.9164 334.8164 0001686 101.6104 258.5217 13.18686867170136
ONEWEB-0565             
1 55146U 23004G   26171.40633360  .00000087  00000+0  18666-3 0  9996
2 55146  87.9154 334.8453 0002134 103.2410 256.8960 13.18685698170120
ONEWEB-0567             
1 55147U 23004H   26171.39959036  .00000084  00000+0  18118-3 0  9995
2 55147  87.9165 334.8309 0001967 104.0571 256.0779 13.18686320170126
ONEWEB-0569             
1 55148U 23004J   26171.43611106  .00000155  00000+0  38921-3 0  9997
2 55148  87.8963 319.5732 0001927 124.1039 236.0273 13.13470546170606
ONEWEB-0570             
1 55149U 23004K   26171.39115062  .00000067  00000+0  13634-3 0  9999
2 55149  87.9164 334.8306 0002250  93.3163 266.8227 13.18685505170117
ONEWEB-0571             
1 55150U 23004L   26171.46027804  .00000031  00000+0  45693-4 0  9997
2 55150  87.9163 334.8160 0002448 123.7820 236.3546 13.18688732170136
ONEWEB-0572             
1 55151U 23004M   26171.48084687  .00000031  00000+0  45857-4 0  9994
2 55151  87.9132   5.2100 0001987  94.0022 266.1336 13.17648705167912
ONEWEB-0573             
1 55152U 23004N   26171.45353797  .00000007  00000+0 -14249-4 0  9998
2 55152  87.9165 334.8189 0002334 113.7828 246.3549 13.18686575170128
ONEWEB-0588             
1 55153U 23004P   26171.44679610  .00000043  00000+0  76050-4 0  9990
2 55153  87.9161 334.8204 0002365  94.4912 265.6490 13.18685632170128
ONEWEB-0598             
1 55154U 23004Q   26171.28841907 -.00000222  00000+0 -66157-3 0  9990
2 55154  87.8880  20.4511 0001796 109.9391 250.1931 13.11414632166302
ONEWEB-0599             
1 55155U 23004R   26171.44203694  .00000029  00000+0  42198-4 0  9997
2 55155  87.9130   5.2163 0001675  92.0376 268.0947 13.17648990167912
ONEWEB-0614             
1 55156U 23004S   26171.28333309  .00000029  00000+0  46070-4 0  9990
2 55156  87.8881  20.4610 0001992  81.9265 278.2089 13.11414470166240
ONEWEB-0616             
1 55157U 23004T   26170.95267418  .00000040  00000+0  69661-4 0  9995
2 55157  87.9133   5.3173 0000940  85.3550 274.7689 13.17649303168065
ONEWEB-0617             
1 55158U 23004U   26171.27148058  .00000428  00000+0  11716-2 0  9996
2 55158  87.8888  20.4546 0002235  84.5653 275.5729 13.11414893166260
ONEWEB-0618             
1 55159U 23004V   26171.43143463  .00003429  00000+0  19148-3 0  9992
2 55159  86.9094 176.3176 0009439 284.5059  75.5133 15.13155354182752
ONEWEB-0619             
1 55160U 23004W   26171.28848266  .00000016  00000+0  86222-5 0  9998
2 55160  87.9142   5.2314 0001855  77.0842 283.0497 13.17648520168007
ONEWEB-0620             
1 55161U 23004X   26171.34268039  .00000516  00000+0  14200-2 0  9999
2 55161  87.8882  20.4489 0001946  94.0701 266.0649 13.11414829166245
ONEWEB-0621             
1 55162U 23004Y   26171.29350138 -.00000436  00000+0 -12668-2 0  9995
2 55162  87.8894  20.4479 0001992  81.4327 278.7027 13.11414623166212
ONEWEB-0622             
1 55163U 23004Z   26171.29858958 -.00000507  00000+0 -14663-2 0  9995
2 55163  87.8899  20.4488 0002568  86.4032 273.7390 13.11415404166201
ONEWEB-0623             
1 55164U 23004AA  26171.43528149  .00000034  00000+0  53659-4 0  9991
2 55164  87.9129   5.2323 0002461  75.4612 284.6792 13.17649545168011
ONEWEB-0624             
1 55165U 23004AB  26171.39567360  .00000196  00000+0  50692-3 0  9997
2 55165  87.8943 349.9462 0001875  87.8678 272.2665 13.12928823168492
ONEWEB-0625             
1 55166U 23004AC  26171.27329538 -.00000059  00000+0 -18634-3 0  9998
2 55166  87.9131   5.2603 0001714  87.0102 273.1225 13.17648849167985
ONEWEB-0626             
1 55167U 23004AD  26170.95943930  .00000832  00000+0  21090-2 0  9997
2 55167  87.9132   5.3230 0001982 100.1826 259.9530 13.17650240167946
ONEWEB-0627             
1 55168U 23004AE  26170.94760710 -.00000001  00000+0 -36092-4 0  9990
2 55168  87.9134   5.3251 0002241  79.1586 280.9797 13.17648672167944
ONEWEB-0628             
1 55169U 23004AF  26171.45450331 -.00000496  00000+0 -14143-2 0  9992
2 55169  87.8944 350.0031 0002222  76.4953 283.6423 13.12443016168460
ONEWEB-0629             
1 55170U 23004AG  26171.45468785  .00000039  00000+0  66986-4 0  9991
2 55170  87.9129   5.2202 0001821  78.8794 281.2542 13.17647769168013
ONEWEB-0631             
1 55171U 23004AH  26171.44005150  .00000004  00000+0 -22292-4 0  9999
2 55171  87.9172 334.7882 0002264 101.0301 259.1085 13.18685069170106
ONEWEB-0709             
1 55172U 23004AJ  26171.33251500  .00000397  00000+0  10845-2 0  9993
2 55172  87.8884  20.4530 0001931 113.7365 246.3966 13.11417579166287
ONEWEB-0710             
1 55173U 23004AK  26171.46903251 -.00000028  00000+0 -10549-3 0  9990
2 55173  87.9131   5.2125 0002016  86.9507 273.1855 13.17649949168011
